OBJECT_NAME,OBJECT_ID,EPOCH,MEAN_MOTION,ECCENTRICITY,INCLINATION,RA_OF_ASC_NODE,ARG_OF_PERICENTER,MEAN_ANOMALY,EPHEMERIS_TYPE,CLASSIFICATION_TYPE,NORAD_CAT_ID,ELEMENT_SET_NO,REV_AT_EPOCH,BSTAR,MEAN_MOTION_DOT,MEAN_MOTION_DDOT
STARLINK-4790,2022-114AT,2026-05-26T16:48:32.505408,15.08835281,.00011007,53.2075,298.5711,67.7034,292.4075,0,U,53859,999,20482,.76741884E-4,.934E-5,0
STARLINK-4799,2022-114AU,2026-05-26T19:25:35.880384,15.08840428,.00012651,53.2107,293.5432,75.2584,284.8548,0,U,53860,999,20466,.39271464E-4,.337E-5,0
STARLINK-4781,2022-114AV,2026-05-26T16:20:08.044224,15.08833340,.00012059,53.2111,294.1650,102.6202,257.4925,0,U,53861,999,20488,.18086023E-4,0,0
STARLINK-4788,2022-114AX,2026-05-26T19:14:59.642016,15.08836942,.00013389,53.2095,293.4978,84.2117,275.9027,0,U,53863,999,20490,.76361547E-4,.927E-5,0
STARLINK-4779,2022-114AY,2026-05-26T16:35:56.019840,15.08832710,.00014669,53.2086,293.5192,55.6682,304.4449,0,U,53864,999,20489,-.19093792E-4,-.592E-5,0
STARLINK-4762,2022-114BA,2026-05-26T14:47:24.555552,15.08837353,.00009927,53.2097,274.5002,75.3369,284.7733,0,U,53866,999,20515,.3431262E-4,.258E-5,0
STARLINK-4793,2022-114BB,2026-05-27T08:00:01.000224,15.31687706,.0001024,53.2178,275.8498,80.8381,128.1208,0,U,53867,999,585,-.2297503E-1,-.661878E-2,0
STARLINK-4789,2022-114BC,2026-05-27T01:12:40.239936,15.08820399,.00011134,53.2058,272.2505,81.0253,279.0865,0,U,53868,999,20522,.17192116E-3,.2448E-4,0
STARLINK-4810,2022-114BD,2026-05-26T16:47:52.455552,15.08836459,.00011324,53.2090,283.5853,78.5028,281.6091,0,U,53869,999,20503,.20921698E-4,.45E-6,0
STARLINK-4732,2022-114BE,2026-05-26T14:10:15.697344,15.08836303,.00010994,53.2071,274.3392,127.3272,232.7821,0,U,53870,999,20515,.53696151E-4,.567E-5,0
STARLINK-4740,2022-114BF,2026-05-26T18:13:58.651968,15.08811960,.00014567,53.2082,273.2702,80.3701,279.7456,0,U,53871,999,20518,.33829182E-3,.5096E-4,0
CHUANGXIN 16B (CX-16B),2022-102B,2026-05-25T22:08:54.004128,15.43380030,.0002566,28.9918,346.1795,44.2951,315.7863,0,U,53876,999,20326,.82547E-3,.38492E-3,0
YUNHAI-1 03,2022-115A,2026-05-27T07:20:35.337120,14.32702588,.00059742,98.5532,145.7190,104.5608,255.6239,0,U,53877,999,19252,.15236415E-3,.371E-5,0
STARLINK-5028,2022-119A,2026-05-26T22:25:47.311104,15.08842600,.0001803,53.2064,333.0930,56.6475,303.4689,0,U,53886,999,20349,-.12705E-4,-.49E-5,0
STARLINK-5029,2022-119B,2026-05-26T22:09:52.243776,15.08840121,.0001525,53.2075,333.0230,85.1887,274.9279,0,U,53887,999,20349,.25791E-4,.122E-5,0
STARLINK-5034,2022-119C,2026-05-27T08:00:01.000224,15.84431752,.00008223,53.2152,307.8308,34.7154,8.2322,0,U,53888,999,596,.21740096E-2,.538879E-2,0
STARLINK-5031,2022-119D,2026-05-26T22:15:11.927232,15.08838540,.0001266,53.2067,333.0453,63.4647,296.6475,0,U,53889,999,20349,.22472E-3,.329E-4,0
STARLINK-5050,2022-119E,2026-05-26T16:32:39.391584,15.08836327,.00012881,53.2101,298.7470,96.7052,263.4087,0,U,53890,999,20395,.40243895E-4,.353E-5,0
STARLINK-5041,2022-119F,2026-05-27T08:00:01.000224,15.35409459,.00009184,53.2164,325.7465,84.1585,273.3209,0,U,53891,999,585,.47818662E-2,.170283E-2,0
STARLINK-5046,2022-119G,2026-05-26T21:38:01.895712,15.08847433,.0001255,53.2071,332.8894,76.2333,283.8799,0,U,53892,999,20349,.7734E-4,.943E-5,0
STARLINK-5052,2022-119H,2026-05-26T21:55:19.617600,15.08853053,.0001391,53.2072,332.9606,85.9659,274.1492,0,U,53893,999,20349,-.59404E-4,-.1234E-4,0
STARLINK-5043,2022-119J,2026-05-27T08:00:01.000224,15.29555165,.00013312,53.2182,328.9314,80.8968,74.3705,0,U,53894,999,581,.45312344E-2,.133583E-2,0
STARLINK-5032,2022-119K,2026-05-27T08:00:01.000224,15.69500266,.00005734,53.2167,314.9706,60.2912,4.5781,0,U,53895,999,587,.21010623E-2,.259808E-2,0
STARLINK-5037,2022-119L,2026-05-26T21:32:44.390400,15.08829669,.0001658,53.2086,332.8652,97.0576,263.0605,0,U,53896,999,20349,.60397E-4,.673E-5,0
STARLINK-5035,2022-119M,2026-05-27T08:00:01.000224,15.51145698,.00008233,53.2169,323.0174,89.0037,215.8974,0,U,53897,999,580,.10216576E-1,.659815E-2,0
STARLINK-5044,2022-119N,2026-05-26T18:06:02.511936,15.08838416,.00014633,53.2070,333.3931,90.2408,269.8752,0,U,53898,999,20347,.47820297E-4,.473E-5,0
STARLINK-5042,2022-119P,2026-05-27T08:00:01.000224,15.71762838,.00006336,53.2168,315.7707,51.5244,320.9175,0,U,53899,999,592,.45078064E-2,.64272E-2,0
STARLINK-5045,2022-119Q,2026-05-26T22:41:35.367072,15.08834447,.0001331,53.2060,332.4546,89.2906,270.8239,0,U,53900,999,20350,.23658E-4,.89E-6,0
STARLINK-5021,2022-119S,2026-05-26T19:32:10.413024,15.08825515,.00009713,53.2089,283.1562,85.5048,274.6055,0,U,53902,999,20418,-.63633431E-4,-.13E-4,0
STARLINK-5022,2022-119T,2026-05-26T21:28:48.197856,15.08841275,.0001179,53.2071,332.8462,72.7134,287.3987,0,U,53903,999,20349,.96109E-4,.1242E-4,0
