STARLINK-4790           
1 53859U 22114AT  26146.70037622  .00000934  00000+0  76742-4 0  9991
2 53859  53.2075 298.5711 0001100  67.7034 292.4075 15.08835281204822
STARLINK-4799           
1 53860U 22114AU  26146.80944306  .00000337  00000+0  39271-4 0  9993
2 53860  53.2107 293.5432 0001265  75.2584 284.8548 15.08840428204662
STARLINK-4781           
1 53861U 22114AV  26146.68064866  .00000000  00000+0  18086-4 0  9992
2 53861  53.2111 294.1650 0001205 102.6202 257.4925 15.08833340204887
STARLINK-4788           
1 53863U 22114AX  26146.80207919  .00000927  00000+0  76362-4 0  9995
2 53863  53.2095 293.4978 0001338  84.2117 275.9027 15.08836942204904
STARLINK-4779           
1 53864U 22114AY  26146.69162060 -.00000592  00000+0 -19094-4 0  9999
2 53864  53.2086 293.5192 0001466  55.6682 304.4449 15.08832710204898
STARLINK-4762           
1 53866U 22114BA  26146.61625643  .00000258  00000+0  34313-4 0  9992
2 53866  53.2097 274.5002 0000992  75.3369 284.7733 15.08837353205159
STARLINK-4793           
1 53867U 22114BB  26147.33334491 -.00661878  00000+0 -22975-1 0  9992
2 53867  53.2178 275.8498 0001024  80.8381 128.1208 15.31687706  5859
STARLINK-4789           
1 53868U 22114BC  26147.05046574  .00002448  00000+0  17192-3 0  9991
2 53868  53.2058 272.2505 0001113  81.0253 279.0865 15.08820399205226
STARLINK-4810           
1 53869U 22114BD  26146.69991268  .00000045  00000+0  20922-4 0  9997
2 53869  53.2090 283.5853 0001132  78.5028 281.6091 15.08836459205039
STARLINK-4732           
1 53870U 22114BE  26146.59045946  .00000567  00000+0  53696-4 0  9994
2 53870  53.2071 274.3392 0001099 127.3272 232.7821 15.08836303205151
STARLINK-4740           
1 53871U 22114BF  26146.75970662  .00005096  00000+0  33829-3 0  9992
2 53871  53.2082 273.2702 0001456  80.3701 279.7456 15.08811960205189
CHUANGXIN 16B (CX-16B)  
1 53876U 22102B   26145.92284727  .00038492  00000+0  82547-3 0  9999
2 53876  28.9918 346.1795 0002566  44.2951 315.7863 15.43380030203260
YUNHAI-1 03             
1 53877U 22115A   26147.30596455  .00000371  00000+0  15236-3 0  9998
2 53877  98.5532 145.7190 0005974 104.5608 255.6239 14.32702588192521
STARLINK-5028           
1 53886U 22119A   26146.93457536 -.00000490  00000+0 -12705-4 0  9999
2 53886  53.2064 333.0930 0001803  56.6475 303.4689 15.08842600203493
STARLINK-5029           
1 53887U 22119B   26146.92352134  .00000122  00000+0  25791-4 0  9996
2 53887  53.2075 333.0230 0001525  85.1887 274.9279 15.08840121203497
STARLINK-5034           
1 53888U 22119C   26147.33334491  .00538879  00000+0  21740-2 0  9992
2 53888  53.2152 307.8308 0000822  34.7154   8.2322 15.84431752  5964
STARLINK-5031           
1 53889U 22119D   26146.92722138  .00003290  00000+0  22472-3 0  9994
2 53889  53.2067 333.0453 0001266  63.4647 296.6475 15.08838540203493
STARLINK-5050           
1 53890U 22119E   26146.68934481  .00000353  00000+0  40244-4 0  9990
2 53890  53.2101 298.7470 0001288  96.7052 263.4087 15.08836327203956
STARLINK-5041           
1 53891U 22119F   26147.33334491  .00170283  00000+0  47819-2 0  9992
2 53891  53.2164 325.7465 0000918  84.1585 273.3209 15.35409459  5859
STARLINK-5046           
1 53892U 22119G   26146.90141083  .00000943  00000+0  77340-4 0  9997
2 53892  53.2071 332.8894 0001255  76.2333 283.8799 15.08847433203498
STARLINK-5052           
1 53893U 22119H   26146.91342150 -.00001234  00000+0 -59404-4 0  9994
2 53893  53.2072 332.9606 0001391  85.9659 274.1492 15.08853053203499
STARLINK-5043           
1 53894U 22119J   26147.33334491  .00133583  00000+0  45312-2 0  9993
2 53894  53.2182 328.9314 0001331  80.8968  74.3705 15.29555165  5813
STARLINK-5032           
1 53895U 22119K   26147.33334491  .00259808  00000+0  21011-2 0  9993
2 53895  53.2167 314.9706 0000573  60.2912   4.5781 15.69500266  5876
STARLINK-5037           
1 53896U 22119L   26146.89773600  .00000673  00000+0  60397-4 0  9999
2 53896  53.2086 332.8652 0001658  97.0576 263.0605 15.08829669203494
STARLINK-5035           
1 53897U 22119M   26147.33334491  .00659815  00000+0  10217-1 0  9992
2 53897  53.2169 323.0174 0000823  89.0037 215.8974 15.51145698  5804
STARLINK-5044           
1 53898U 22119N   26146.75419574  .00000473  00000+0  47820-4 0  9997
2 53898  53.2070 333.3931 0001463  90.2408 269.8752 15.08838416203473
STARLINK-5042           
1 53899U 22119P   26147.33334491  .00642720  00000+0  45078-2 0  9995
2 53899  53.2168 315.7707 0000633  51.5244 320.9175 15.71762838  5925
STARLINK-5045           
1 53900U 22119Q   26146.94554823  .00000089  00000+0  23658-4 0  9995
2 53900  53.2060 332.4546 0001331  89.2906 270.8239 15.08834447203509
STARLINK-5021           
1 53902U 22119S   26146.81400941 -.00001300  00000+0 -63633-4 0  9990
2 53902  53.2089 283.1562 0000971  85.5048 274.6055 15.08825515204186
STARLINK-5022           
1 53903U 22119T   26146.89500229  .00001242  00000+0  96109-4 0  9996
2 53903  53.2071 332.8462 0001179  72.7134 287.3987 15.08841275203493
